[
    {
        "Altitude(m)": 604234.6226356929,
        "Argument of Periapsis(deg)": 0.0,
        "Eccentricity": 0.0,
        "Inclination(deg)": 60.0,
        "Latitude(deg)": 14.117312213779227,
        "Longitude(deg)": 61.72731441985141,
        "Mean Anomaly(deg)": -196.36359999999996,
        "RAAN(deg)": 350.0,
        "Satellite Name": "Test1 1550",
        "Satellite Number": 1550,
        "Semi-Major Axis(m)": 6980739.136638005,
        "Time(s)": 0
    },
    {
        "Altitude(m)": 604223.450779857,
        "Argument of Periapsis(deg)": 0.00010418945913296404,
        "Eccentricity": 0.0,
        "Inclination(deg)": 60.0,
        "Latitude(deg)": 13.582448845636415,
        "Longitude(deg)": 62.01422419596715,
        "Mean Anomaly(deg)": -195.74349385453812,
        "RAAN(deg)": 349.99957995086027,
        "Satellite Name": "Test1 1550",
        "Satellite Number": 1550,
        "Semi-Major Axis(m)": 6980739.136638005,
        "Time(s)": 10
    }
]